SL-16 R/B               
1 25407U 98045B   26092.80026336 -.00000005  00000+0  21634-4 0  9996
2 25407  71.0091 130.8724 0008183 332.4015  27.6673 14.16193287430517
ISS (ZARYA)             
1 25544U 98067A   26092.84326290  .00011825  00000+0  22447-3 0  9991
2 25544  51.6328 312.9475 0006235 264.7845  95.2432 15.48729122560074
CZ-4B R/B               
1 25732U 99025C   26092.88533352  .00000091  00000+0  65030-4 0  9997
2 25732  98.6575 136.5883 0035968 275.3948 257.0985 14.18270341391598
OKEAN-O                 
1 25860U 99039A   26092.91768026  .00001066  00000+0  14651-3 0  9991
2 25860  97.9391 152.5568 0000914 101.4956 258.6359 14.80376548437977
SL-16 R/B               
1 25861U 99039B   26092.87479427  .00000936  00000+0  12535-3 0  9995
2 25861  97.9915 151.9292 0014951 173.7488 186.3914 14.81766630440441
DELTA 2 R/B             
1 25876U 99041E   26092.58137671  .00000813  00000+0  17038-3 0  9991
2 25876  51.7608 205.8385 0502636  58.8851 306.0393 14.11892754366400
HELIOS 1B               
1 25977U 99064A   26092.65725830  .00002151  00000+0  24193-3 0  9993
2 25977  98.1673 355.6027 0001592  45.4257 314.7088 14.87792668688829
TERRA                   
1 25994U 99068A   26092.91190221  .00000691  00000+0  14976-3 0  9990
2 25994  97.9542 145.4152 0003661 101.6649  70.5638 14.61041892398614
SL-16 R/B               
1 26070U 00006B   26092.96327352  .00000176  00000+0  11345-3 0  9997
2 26070  71.0036  46.7943 0015338 151.7633 208.4325 14.15830597351997
TITAN 4B R/B            
1 26474U 00047B   26092.94512159  .00006172  00000+0  38200-3 0  9990
2 26474  67.9907 332.2964 0040171   6.9608 353.2090 15.09792145396579
ENVISAT                 
1 27386U 02009A   26092.86914763  .00000149  00000+0  62188-4 0  9992
2 27386  98.3769  45.8968 0001202  82.2037 291.3890 14.39045523262656
IDEFIX & ARIANE 42P R/B 
1 27422U 02021B   26092.82786825  .00000439  00000+0  18323-3 0  9992
2 27422  98.5898  31.1497 0012824 113.8354 246.4175 14.31043524247473
